[{"OBJECT_NAME":"FENGYUN 1C DEB","OBJECT_ID":"1999-025DVF","EPOCH":"2026-04-22T22:44:14.860608","MEAN_MOTION":13.75811952,"ECCENTRICITY":0.02166913,"INCLINATION":99.5135,"RA_OF_ASC_NODE":192.9465,"ARG_OF_PERICENTER":158.7745,"MEAN_ANOMALY":202.2565,"EPHEMERIS_TYPE":0,"CLASSIFICATION_TYPE":"U","NORAD_CAT_ID":36230,"ELEMENT_SET_NO":999,"REV_AT_EPOCH":63690,"BSTAR":0.0013106476,"MEAN_MOTION_DOT":1.462e-5,"MEAN_MOTION_DDOT":0},{"OBJECT_NAME":"FENGYUN 1C DEB","OBJECT_ID":"1999-025DVG","EPOCH":"2026-04-26T09:10:12.622656","MEAN_MOTION":14.12081538,"ECCENTRICITY":0.00599883,"INCLINATION":98.7078,"RA_OF_ASC_NODE":92.2991,"ARG_OF_PERICENTER":310.3699,"MEAN_ANOMALY":49.2244,"EPHEMERIS_TYPE":0,"CLASSIFICATION_TYPE":"U","NORAD_CAT_ID":36231,"ELEMENT_SET_NO":999,"REV_AT_EPOCH":87443,"BSTAR":0.0001117519,"MEAN_MOTION_DOT":1.65e-6,"MEAN_MOTION_DDOT":0},{"OBJECT_NAME":"FENGYUN 1C DEB","OBJECT_ID":"1999-025DVH","EPOCH":"2026-04-26T05:02:30.818688","MEAN_MOTION":14.12672179,"ECCENTRICITY":0.01185152,"INCLINATION":98.7205,"RA_OF_ASC_NODE":101.6111,"ARG_OF_PERICENTER":5.643,"MEAN_ANOMALY":354.6047,"EPHEMERIS_TYPE":0,"CLASSIFICATION_TYPE":"U","NORAD_CAT_ID":36232,"ELEMENT_SET_NO":999,"REV_AT_EPOCH":63634,"BSTAR":0.00026786492,"MEAN_MOTION_DOT":4.87e-6,"MEAN_MOTION_DDOT":0},{"OBJECT_NAME":"FENGYUN 1C DEB","OBJECT_ID":"1999-025DVK","EPOCH":"2026-04-22T09:11:01.175136","MEAN_MOTION":13.45746628,"ECCENTRICITY":0.03180393,"INCLINATION":98.9784,"RA_OF_ASC_NODE":173.8665,"ARG_OF_PERICENTER":58.4786,"MEAN_ANOMALY":304.7003,"EPHEMERIS_TYPE":0,"CLASSIFICATION_TYPE":"U","NORAD_CAT_ID":36234,"ELEMENT_SET_NO":999,"REV_AT_EPOCH":89704,"BSTAR":0.00019691455,"MEAN_MOTION_DOT":1.23e-6,"MEAN_MOTION_DDOT":0},{"OBJECT_NAME":"FENGYUN 1C DEB","OBJECT_ID":"1999-025DVM","EPOCH":"2026-04-26T09:13:17.295744","MEAN_MOTION":13.82058409,"ECCENTRICITY":0.01491484,"INCLINATION":98.8303,"RA_OF_ASC_NODE":153.4537,"ARG_OF_PERICENTER":355.5863,"MEAN_ANOMALY":4.3967,"EPHEMERIS_TYPE":0,"CLASSIFICATION_TYPE":"U","NORAD_CAT_ID":36236,"ELEMENT_SET_NO":999,"REV_AT_EPOCH":61607,"BSTAR":0.00022463425,"MEAN_MOTION_DOT":2.22e-6,"MEAN_MOTION_DDOT":0},{"OBJECT_NAME":"FENGYUN 1C DEB","OBJECT_ID":"1999-025DVP","EPOCH":"2026-04-26T15:34:15.114720","MEAN_MOTION":14.12434384,"ECCENTRICITY":0.00200137,"INCLINATION":98.6673,"RA_OF_ASC_NODE":89.5508,"ARG_OF_PERICENTER":256.0736,"MEAN_ANOMALY":103.821,"EPHEMERIS_TYPE":0,"CLASSIFICATION_TYPE":"U","NORAD_CAT_ID":36238,"ELEMENT_SET_NO":999,"REV_AT_EPOCH":88922,"BSTAR":7.8056294e-5,"MEAN_MOTION_DOT":1.02e-6,"MEAN_MOTION_DDOT":0},{"OBJECT_NAME":"FENGYUN 1C DEB","OBJECT_ID":"1999-025DVV","EPOCH":"2026-04-26T06:25:06.570624","MEAN_MOTION":14.26036565,"ECCENTRICITY":0.00483673,"INCLINATION":98.9287,"RA_OF_ASC_NODE":234.2908,"ARG_OF_PERICENTER":254.8512,"MEAN_ANOMALY":104.7314,"EPHEMERIS_TYPE":0,"CLASSIFICATION_TYPE":"U","NORAD_CAT_ID":36244,"ELEMENT_SET_NO":999,"REV_AT_EPOCH":93895,"BSTAR":0.0015902569,"MEAN_MOTION_DOT":3.8e-5,"MEAN_MOTION_DDOT":0},{"OBJECT_NAME":"FENGYUN 1C DEB","OBJECT_ID":"1999-025DVY","EPOCH":"2026-04-25T12:03:24.019776","MEAN_MOTION":14.34035951,"ECCENTRICITY":0.01852925,"INCLINATION":98.2633,"RA_OF_ASC_NODE":127.7529,"ARG_OF_PERICENTER":354.4832,"MEAN_ANOMALY":5.431,"EPHEMERIS_TYPE":0,"CLASSIFICATION_TYPE":"U","NORAD_CAT_ID":36247,"ELEMENT_SET_NO":999,"REV_AT_EPOCH":72179,"BSTAR":0.00037986448,"MEAN_MOTION_DOT":1.239e-5,"MEAN_MOTION_DDOT":0},{"OBJECT_NAME":"FENGYUN 1C DEB","OBJECT_ID":"1999-025DWG","EPOCH":"2026-04-21T14:22:17.436288","MEAN_MOTION":14.37240326,"ECCENTRICITY":0.00637432,"INCLINATION":99.442,"RA_OF_ASC_NODE":49.686,"ARG_OF_PERICENTER":147.0355,"MEAN_ANOMALY":31.7725,"EPHEMERIS_TYPE":0,"CLASSIFICATION_TYPE":"U","NORAD_CAT_ID":36255,"ELEMENT_SET_NO":999,"REV_AT_EPOCH":65875,"BSTAR":0.00041265042,"MEAN_MOTION_DOT":1.207e-5,"MEAN_MOTION_DDOT":0},{"OBJECT_NAME":"FENGYUN 1C DEB","OBJECT_ID":"1999-025DWK","EPOCH":"2026-04-25T08:39:17.222400","MEAN_MOTION":14.75662961,"ECCENTRICITY":0.01715194,"INCLINATION":99.0665,"RA_OF_ASC_NODE":166.0964,"ARG_OF_PERICENTER":69.5982,"MEAN_ANOMALY":292.3552,"EPHEMERIS_TYPE":0,"CLASSIFICATION_TYPE":"U","NORAD_CAT_ID":36258,"ELEMENT_SET_NO":999,"REV_AT_EPOCH":92792,"BSTAR":0.00036888937,"MEAN_MOTION_DOT":3.131e-5,"MEAN_MOTION_DDOT":0},{"OBJECT_NAME":"FENGYUN 1C DEB","OBJECT_ID":"1999-025DWM","EPOCH":"2026-04-25T22:58:24.155328","MEAN_MOTION":14.1547639,"ECCENTRICITY":0.00151077,"INCLINATION":98.6646,"RA_OF_ASC_NODE":119.3425,"ARG_OF_PERICENTER":223.0358,"MEAN_ANOMALY":136.9636,"EPHEMERIS_TYPE":0,"CLASSIFICATION_TYPE":"U","NORAD_CAT_ID":36260,"ELEMENT_SET_NO":999,"REV_AT_EPOCH":89707,"BSTAR":0.00014905172,"MEAN_MOTION_DOT":2.49e-6,"MEAN_MOTION_DDOT":0},{"OBJECT_NAME":"FENGYUN 1C DEB","OBJECT_ID":"1999-025DWN","EPOCH":"2026-04-26T13:43:19.164576","MEAN_MOTION":13.45597884,"ECCENTRICITY":0.0355258,"INCLINATION":101.3592,"RA_OF_ASC_NODE":31.6358,"ARG_OF_PERICENTER":122.5016,"MEAN_ANOMALY":241.0966,"EPHEMERIS_TYPE":0,"CLASSIFICATION_TYPE":"U","NORAD_CAT_ID":36261,"ELEMENT_SET_NO":999,"REV_AT_EPOCH":86246,"BSTAR":0.00047585,"MEAN_MOTION_DOT":3.61e-6,"MEAN_MOTION_DDOT":0},{"OBJECT_NAME":"FENGYUN 1C DEB","OBJECT_ID":"1999-025DWP","EPOCH":"2026-04-25T12:36:00.587520","MEAN_MOTION":14.27995543,"ECCENTRICITY":0.0059433,"INCLINATION":98.9467,"RA_OF_ASC_NODE":4.3888,"ARG_OF_PERICENTER":247.2715,"MEAN_ANOMALY":112.2177,"EPHEMERIS_TYPE":0,"CLASSIFICATION_TYPE":"U","NORAD_CAT_ID":36262,"ELEMENT_SET_NO":999,"REV_AT_EPOCH":91406,"BSTAR":0.00017279154,"MEAN_MOTION_DOT":3.9e-6,"MEAN_MOTION_DDOT":0},{"OBJECT_NAME":"FENGYUN 1C DEB","OBJECT_ID":"1999-025DWQ","EPOCH":"2026-04-25T03:36:30.126816","MEAN_MOTION":14.47405447,"ECCENTRICITY":0.00336406,"INCLINATION":98.9918,"RA_OF_ASC_NODE":9.3906,"ARG_OF_PERICENTER":225.1691,"MEAN_ANOMALY":134.6765,"EPHEMERIS_TYPE":0,"CLASSIFICATION_TYPE":"U","NORAD_CAT_ID":36263,"ELEMENT_SET_NO":999,"REV_AT_EPOCH":89914,"BSTAR":0.0013931279,"MEAN_MOTION_DOT":5.099e-5,"MEAN_MOTION_DDOT":0},{"OBJECT_NAME":"FENGYUN 1C DEB","OBJECT_ID":"1999-025DWU","EPOCH":"2026-04-26T18:50:01.148064","MEAN_MOTION":14.09698456,"ECCENTRICITY":0.01250071,"INCLINATION":98.5707,"RA_OF_ASC_NODE":62.6193,"ARG_OF_PERICENTER":185.5958,"MEAN_ANOMALY":204.8902,"EPHEMERIS_TYPE":0,"CLASSIFICATION_TYPE":"U","NORAD_CAT_ID":36267,"ELEMENT_SET_NO":999,"REV_AT_EPOCH":88432,"BSTAR":0.00088573421,"MEAN_MOTION_DOT":1.629e-5,"MEAN_MOTION_DDOT":0},{"OBJECT_NAME":"FENGYUN 1C DEB","OBJECT_ID":"1999-025DWW","EPOCH":"2026-04-21T14:57:33.221088","MEAN_MOTION":14.2767702,"ECCENTRICITY":0.02304962,"INCLINATION":99.1274,"RA_OF_ASC_NODE":64.2246,"ARG_OF_PERICENTER":265.4652,"MEAN_ANOMALY":92.0167,"EPHEMERIS_TYPE":0,"CLASSIFICATION_TYPE":"U","NORAD_CAT_ID":36269,"ELEMENT_SET_NO":999,"REV_AT_EPOCH":89569,"BSTAR":0.00020539158,"MEAN_MOTION_DOT":6.14e-6,"MEAN_MOTION_DDOT":0}]
