FENGYUN 1C DEB          
1 36230U 99025DVF 26112.94739422  .00001462  00000+0  13106-2 0  9996
2 36230  99.5135 192.9465 0216691 158.7745 202.2565 13.75811952636904
FENGYUN 1C DEB          
1 36231U 99025DVG 26116.38209054  .00000165  00000+0  11175-3 0  9996
2 36231  98.7078  92.2991 0059988 310.3699  49.2244 14.12081538874432
FENGYUN 1C DEB          
1 36232U 99025DVH 26116.21007892  .00000487  00000+0  26786-3 0  9996
2 36232  98.7205 101.6111 0118515   5.6430 354.6047 14.12672179636340
FENGYUN 1C DEB          
1 36234U 99025DVK 26112.38265249  .00000123  00000+0  19691-3 0  9998
2 36234  98.9784 173.8665 0318039  58.4786 304.7003 13.45746628897044
FENGYUN 1C DEB          
1 36236U 99025DVM 26116.38422796  .00000222  00000+0  22463-3 0  9997
2 36236  98.8303 153.4537 0149148 355.5863   4.3967 13.82058409616072
FENGYUN 1C DEB          
1 36238U 99025DVP 26116.64878605  .00000102  00000+0  78056-4 0  9999
2 36238  98.6673  89.5508 0020013 256.0736 103.8210 14.12434384889221
FENGYUN 1C DEB          
1 36244U 99025DVV 26116.26743716  .00003800  00000+0  15903-2 0  9996
2 36244  98.9287 234.2908 0048367 254.8512 104.7314 14.26036565938959
FENGYUN 1C DEB          
1 36247U 99025DVY 26115.50236134  .00001239  00000+0  37986-3 0  9996
2 36247  98.2633 127.7529 0185292 354.4832   5.4310 14.34035951721798
FENGYUN 1C DEB          
1 36255U 99025DWG 26111.59881292  .00001207  00000+0  41265-3 0  9991
2 36255  99.4420  49.6860 0063743 147.0355  31.7725 14.37240326658750
FENGYUN 1C DEB          
1 36258U 99025DWK 26115.36061600  .00003131  00000+0  36889-3 0  9990
2 36258  99.0665 166.0964 0171519  69.5982 292.3552 14.75662961927920
FENGYUN 1C DEB          
1 36260U 99025DWM 26115.95722402  .00000249  00000+0  14905-3 0  9994
2 36260  98.6646 119.3425 0015107 223.0358 136.9636 14.15476390897075
FENGYUN 1C DEB          
1 36261U 99025DWN 26116.57174959  .00000361  00000+0  47585-3 0  9997
2 36261 101.3592  31.6358 0355258 122.5016 241.0966 13.45597884862460
FENGYUN 1C DEB          
1 36262U 99025DWP 26115.52500680  .00000390  00000+0  17279-3 0  9995
2 36262  98.9467   4.3888 0059433 247.2715 112.2177 14.27995543914067
FENGYUN 1C DEB          
1 36263U 99025DWQ 26115.15034869  .00005099  00000+0  13931-2 0  9997
2 36263  98.9918   9.3906 0033640 225.1691 134.6765 14.47405447899148
FENGYUN 1C DEB          
1 36267U 99025DWU 26116.78473551  .00001629  00000+0  88573-3 0  9996
2 36267  98.5707  62.6193 0125007 185.5958 204.8902 14.09698456884327
FENGYUN 1C DEB          
1 36269U 99025DWW 26111.62330117  .00000614  00000+0  20539-3 0  9997
2 36269  99.1274  64.2246 0230496 265.4652  92.0167 14.27677020895696
